2013/01/11 00:28
CYUX 110028Z AUTO 25010KT 6SM -SN BKN043 OVC065 M28/M31 A2975 RMK SLP077
