2010/06/18 06:00
DXLK 180600Z 28002KT 9999 FEW016 SCT120 BKN260 24/23 Q1013
