2013/01/11 00:20
EDDF 110020Z 21005KT 9999 SCT020 BKN040 BKN070 02/01 Q1010 NOSIG
