2013/01/10 21:50
EDDT 102150Z 32007KT 9999 FEW014 BKN036 M00/M03 Q1008 TEMPO BKN012
