2013/01/10 21:53
KAXN 102153Z AUTO 16019G24KT 10SM BKN021 03/M06 A2989 RMK AO2 SLP137 T00331056
