2013/01/10 20:15
KBCB 102015Z AUTO 07004KT 10SM CLR 14/01 A3046 RMK AO2
