2013/01/11 00:20
KBIL 110020Z 05017KT 10SM FEW019 OVC030 M03/M07 A2957 RMK AO2 T10281072
