2013/01/11 00:35
KCXP 110035Z AUTO 31006KT 10SM FEW043 M02/M13 A2990 RMK AO2
