2013/01/10 21:53
KDEN 102153Z 00000KT 10SM SCT150 OVC200 02/M07 A2959 RMK AO2 SLP007 T00221067
