2013/01/10 18:52
KIAD 101852Z 35008KT 10SM FEW250 12/M04 A3052 RMK AO2 SLP335 T01221039
