2013/01/10 23:51
KLGA 102351Z 31007KT 10SM SCT250 07/M04 A3052 RMK AO2 SLP335 T00721039 10089 20072 53014
