2013/01/11 00:53
KMCO 110053Z 10005KT 10SM FEW250 20/18 A3029 RMK AO2 SLP255 T02000178 
