2013/01/10 23:54
KMGJ 102354Z AUTO 00000KT 10SM CLR 00/M04 A3051 RMK AO2 SLP336 T00001044 10078 21006 53014 TSNO
