2013/01/11 00:53
KMIA 110053Z 08011KT 10SM FEW060 SCT250 24/19 A3026 RMK AO2 SLP246 T02390194
