2013/01/10 21:51
KSAN 102151Z 30017G22KT 10SM SCT040 BKN060 BKN180 13/01 A3003 RMK AO2 PK WND 28027/2140 SLP167 T01330011 
