2013/01/11 00:56
KSFO 110056Z 29017KT 10SM FEW033 SCT049 09/02 A3012 RMK AO2 SLP199 T00940017
