2013/01/10 18:30
LRAR 101830Z 11003KT 2000 0800N R27/1000VP2000D BCFG SCT005 M02/M02 Q1011 09890392
