2013/01/10 23:44
MMUN 102344Z 11007KT 7SM SCT015TCU SCT080 26/23 A3006 RMK SLP178 52010 906 8/230 HZY AS W
