2011/06/09 09:00
TBOB 090900Z 11006KT 9999 SCT014 SCT038 28/25 Q1014 NOSIG
