2013/01/10 16:00
UUOK 101600Z 16004MPS 9999 OVC013 M13/M16 Q1014 NOSIG RMK 12CLRD60
