2013/01/11 00:30
YSSY 110030Z 05007KT 350V080 CAVOK 28/17 Q1007 NOSIG
