2008/03/23 23:00
ZBDT 232300Z 333004MPS CAVOK M04/M14 Q1020 NOSIG
