2012/09/28 04:00
ZPLJ 280400Z 24002MPS 210V290 9999 -SHRA FEW023 FEW040TCU SCT040 19/15 Q1026 NOSIG
